{
  "type": "FeatureCollection",
  "features": [
    {
      "type": "Feature",
      "properties": {
        "norad_id": 28054,
        "name": "DMSP 5D-3 F16 (USA 172)",
        "group": "weather",
        "lat": -33.44313996794138,
        "lon": 2.307184112265811,
        "alt_km": 845.7053308316799,
        "timestamp": "2025-12-04T21:36:15.516237+00:00",
        "meta_object_name": "DMSP 5D-3 F16 (USA 172)",
        "meta_object_id": "2003-048A",
        "meta_epoch": "2025-12-04T15:30:12.545856",
        "meta_mean_motion": 14.14419735,
        "meta_eccentricity": 0.00068369,
        "meta_inclination": 99.0051,
        "meta_ra_of_asc_node": 356.0392,
        "meta_arg_of_pericenter": 345.6082,
        "meta_mean_anomaly": 126.9524,
        "meta_ephemeris_type": 0,
        "meta_classification_type": "U",
        "meta_norad_cat_id": 28054,
        "meta_element_set_no": 999,
        "meta_rev_at_epoch": 14198,
        "meta_bstar": 0.00015925666,
        "meta_mean_motion_dot": 2.59e-06,
        "meta_mean_motion_ddot": 0,
        "tle_line1": "1 28054U 03048A   25338.64597854  .00000259  00000+0  15926-3 0  9994",
        "tle_line2": "2 28054  99.0051 356.0392 0006836 345.6082 126.9524 14.14419735141985"
      },
      "geometry": {
        "type": "Point",
        "coordinates": [
          2.307184112265811,
          -33.44313996794138
        ]
      }
    },
    {
      "type": "Feature",
      "properties": {
        "norad_id": 28912,
        "name": "METEOSAT-9 (MSG-2)",
        "group": "weather",
        "lat": 4.137347268538573,
        "lon": 83.31713110856153,
        "alt_km": 35801.163050849675,
        "timestamp": "2025-12-04T21:36:15.516312+00:00",
        "meta_object_name": "METEOSAT-9 (MSG-2)",
        "meta_object_id": "2005-049B",
        "meta_epoch": "2025-12-02T20:50:55.807872",
        "meta_mean_motion": 1.00271253,
        "meta_eccentricity": 0.00040042,
        "meta_inclination": 8.9157,
        "meta_ra_of_asc_node": 56.0648,
        "meta_arg_of_pericenter": 185.08,
        "meta_mean_anomaly": 189.154,
        "meta_ephemeris_type": 0,
        "meta_classification_type": "U",
        "meta_norad_cat_id": 28912,
        "meta_element_set_no": 999,
        "meta_rev_at_epoch": 503,
        "meta_bstar": 0,
        "meta_mean_motion_dot": 1.39e-06,
        "meta_mean_motion_ddot": 0,
        "tle_line1": "1 28912U 05049B   25336.86870148  .00000139  00000+0  00000+0 0  9992",
        "tle_line2": "2 28912   8.9157  56.0648 0004004 185.0800 189.1540  1.00271253  5030"
      },
      "geometry": {
        "type": "Point",
        "coordinates": [
          83.31713110856153,
          4.137347268538573
        ]
      }
    },
    {
      "type": "Feature",
      "properties": {
        "norad_id": 29522,
        "name": "DMSP 5D-3 F17 (USA 191)",
        "group": "weather",
        "lat": -70.8196434637314,
        "lon": 138.20798567573863,
        "alt_km": 843.2434618772822,
        "timestamp": "2025-12-04T21:36:15.516332+00:00",
        "meta_object_name": "DMSP 5D-3 F17 (USA 191)",
        "meta_object_id": "2006-050A",
        "meta_epoch": "2025-12-04T15:19:15.691584",
        "meta_mean_motion": 14.14914216,
        "meta_eccentricity": 0.00091825,
        "meta_inclination": 98.7393,
        "meta_ra_of_asc_node": 344.1961,
        "meta_arg_of_pericenter": 250.1146,
        "meta_mean_anomaly": 109.9038,
        "meta_ephemeris_type": 0,
        "meta_classification_type": "U",
        "meta_norad_cat_id": 29522,
        "meta_element_set_no": 999,
        "meta_rev_at_epoch": 98490,
        "meta_bstar": 0.00019547476,
        "meta_mean_motion_dot": 3.34e-06,
        "meta_mean_motion_ddot": 0,
        "tle_line1": "1 29522U 06050A   25338.63837606  .00000334  00000+0  19547-3 0  9999",
        "tle_line2": "2 29522  98.7393 344.1961 0009182 250.1146 109.9038 14.14914216984901"
      },
      "geometry": {
        "type": "Point",
        "coordinates": [
          138.20798567573863,
          -70.8196434637314
        ]
      }
    },
    {
      "type": "Feature",
      "properties": {
        "norad_id": 32958,
        "name": "FENGYUN 3A",
        "group": "weather",
        "lat": -17.195958573238368,
        "lon": 95.88628430890098,
        "alt_km": 836.2689594654885,
        "timestamp": "2025-12-04T21:36:15.516346+00:00",
        "meta_object_name": "FENGYUN 3A",
        "meta_object_id": "2008-026A",
        "meta_epoch": "2025-12-04T13:54:38.161440",
        "meta_mean_motion": 14.19510525,
        "meta_eccentricity": 0.00082953,
        "meta_inclination": 98.6684,
        "meta_ra_of_asc_node": 278.2786,
        "meta_arg_of_pericenter": 335.6429,
        "meta_mean_anomaly": 24.4354,
        "meta_ephemeris_type": 0,
        "meta_classification_type": "U",
        "meta_norad_cat_id": 32958,
        "meta_element_set_no": 999,
        "meta_rev_at_epoch": 90779,
        "meta_bstar": 0.00013513725,
        "meta_mean_motion_dot": 2.42e-06,
        "meta_mean_motion_ddot": 0,
        "tle_line1": "1 32958U 08026A   25338.57960835  .00000242  00000+0  13514-3 0  9991",
        "tle_line2": "2 32958  98.6684 278.2786 0008295 335.6429  24.4354 14.19510525907793"
      },
      "geometry": {
        "type": "Point",
        "coordinates": [
          95.88628430890098,
          -17.195958573238368
        ]
      }
    },
    {
      "type": "Feature",
      "properties": {
        "norad_id": 35491,
        "name": "GOES 14",
        "group": "weather",
        "lat": -0.49997432349838433,
        "lon": -70.28202623363894,
        "alt_km": 35775.09027947191,
        "timestamp": "2025-12-04T21:36:15.516361+00:00",
        "meta_object_name": "GOES 14",
        "meta_object_id": "2009-033A",
        "meta_epoch": "2025-12-04T13:12:37.577088",
        "meta_mean_motion": 1.00272692,
        "meta_eccentricity": 0.00041937,
        "meta_inclination": 1.1765,
        "meta_ra_of_asc_node": 85.5028,
        "meta_arg_of_pericenter": 151.4845,
        "meta_mean_anomaly": 286.46,
        "meta_ephemeris_type": 0,
        "meta_classification_type": "U",
        "meta_norad_cat_id": 35491,
        "meta_element_set_no": 999,
        "meta_rev_at_epoch": 464,
        "meta_bstar": 0,
        "meta_mean_motion_dot": -5.4e-07,
        "meta_mean_motion_ddot": 0,
        "tle_line1": "1 35491U 09033A   25338.55043492 -.00000054  00000+0  00000+0 0  9998",
        "tle_line2": "2 35491   1.1765  85.5028 0004193 151.4845 286.4600  1.00272692  4646"
      },
      "geometry": {
        "type": "Point",
        "coordinates": [
          -70.28202623363894,
          -0.49997432349838433
        ]
      }
    },
    {
      "type": "Feature",
      "properties": {
        "norad_id": 35951,
        "name": "DMSP 5D-3 F18 (USA 210)",
        "group": "weather",
        "lat": 54.47078926110859,
        "lon": 147.99107154417098,
        "alt_km": 831.349794511766,
        "timestamp": "2025-12-04T21:36:15.516374+00:00",
        "meta_object_name": "DMSP 5D-3 F18 (USA 210)",
        "meta_object_id": "2009-057A",
        "meta_epoch": "2025-12-04T14:13:46.765632",
        "meta_mean_motion": 14.14762002,
        "meta_eccentricity": 0.00121161,
        "meta_inclination": 98.8825,
        "meta_ra_of_asc_node": 315.0349,
        "meta_arg_of_pericenter": 83.9477,
        "meta_mean_anomaly": 276.3076,
        "meta_ephemeris_type": 0,
        "meta_classification_type": "U",
        "meta_norad_cat_id": 35951,
        "meta_element_set_no": 999,
        "meta_rev_at_epoch": 83207,
        "meta_bstar": 0.00025432073,
        "meta_mean_motion_dot": 4.46e-06,
        "meta_mean_motion_ddot": 0,
        "tle_line1": "1 35951U 09057A   25338.59290238  .00000446  00000+0  25432-3 0  9995",
        "tle_line2": "2 35951  98.8825 315.0349 0012116  83.9477 276.3076 14.14762002832077"
      },
      "geometry": {
        "type": "Point",
        "coordinates": [
          147.99107154417098,
          54.47078926110859
        ]
      }
    },
    {
      "type": "Feature",
      "properties": {
        "norad_id": 36411,
        "name": "EWS-G2 (GOES 15)",
        "group": "weather",
        "lat": 0.20441548683447294,
        "lon": 99.46645465723809,
        "alt_km": 35810.63984703311,
        "timestamp": "2025-12-04T21:36:15.516388+00:00",
        "meta_object_name": "EWS-G2 (GOES 15)",
        "meta_object_id": "2010-008A",
        "meta_epoch": "2025-12-04T14:01:10.426080",
        "meta_mean_motion": 1.00267939,
        "meta_eccentricity": 0.00060123,
        "meta_inclination": 0.7923,
        "meta_ra_of_asc_node": 86.0459,
        "meta_arg_of_pericenter": 170.865,
        "meta_mean_anomaly": 88.5235,
        "meta_ephemeris_type": 0,
        "meta_classification_type": "U",
        "meta_norad_cat_id": 36411,
        "meta_element_set_no": 999,
        "meta_rev_at_epoch": 5768,
        "meta_bstar": 0,
        "meta_mean_motion_dot": 5.2e-07,
        "meta_mean_motion_ddot": 0,
        "tle_line1": "1 36411U 10008A   25338.58414845  .00000052  00000+0  00000+0 0  9999",
        "tle_line2": "2 36411   0.7923  86.0459 0006012 170.8650  88.5235  1.00267939 57680"
      },
      "geometry": {
        "type": "Point",
        "coordinates": [
          99.46645465723809,
          0.20441548683447294
        ]
      }
    }
  ]
}